SL-16 R/B               
1 22285U 92093B   25309.85369487  .00000168  00000+0  11040-3 0  9994
2 22285  71.0203 264.2238 0003257 167.3798 192.7408 14.15418695695633
COSMOS 2228             
1 22286U 92094A   25309.91750181  .00002473  00000+0  21499-3 0  9998
2 22286  82.5196 355.7622 0018042   3.9483 356.1878 14.96476082757548
SL-16 R/B               
1 22566U 93016B   25309.88177973 -.00000134  00000+0 -44321-4 0  9996
2 22566  71.0048 115.2128 0009416 164.2942 195.8474 14.15278275684650
COSMOS 2242             
1 22626U 93024A   25309.64730675  .00002394  00000+0  21139-3 0  9999
2 22626  82.5224  25.2870 0016477   7.8323 352.3153 14.95873753761845
SL-16 R/B               
1 22803U 93059B   25309.88818437 -.00000079  00000+0 -15328-4 0  9997
2 22803  70.9891 272.1938 0015786  32.0963 328.1119 14.17202045661995
ARIANE 40 R/B           
1 22830U 93061H   25309.67592373  .00000297  00000+0  12483-3 0  9993
2 22830  98.5121  15.8726 0009643 293.3575  66.6595 14.32765055676349
COSMOS 2278             
1 23087U 94023A   25309.75872331  .00000129  00000+0  91943-4 0  9994
2 23087  71.0523  74.3764 0010338 226.9970 133.0287 14.14331990627285
SL-16 R/B               
1 23088U 94023B   25309.50844449 -.00000043  00000+0  24232-5 0  9991
2 23088  71.0008 331.6757 0001804 176.1507 183.9629 14.14993093628525
SL-16 R/B               
1 23343U 94074B   25309.55627402  .00000590  00000+0  86074-4 0  9991
2 23343  97.7252 340.3300 0005118 264.6834 248.6753 14.79222894668890
SL-16 R/B               
1 23405U 94077B   25309.82114848  .00000201  00000+0  12710-3 0  9992
2 23405  70.9818 253.0779 0003595 314.0238  46.0589 14.15539430598701
ARIANE 40+ R/B          
1 23561U 95021B   25309.64191089  .00000398  00000+0  14135-3 0  9997
2 23561  98.4694  17.6715 0007449 146.4069  10.5840 14.39649872601390
SL-16 R/B               
1 23705U 95058B   25309.75132202  .00000208  00000+0  13079-3 0  9997
2 23705  71.0211  80.4574 0014451 303.2571  56.7166 14.15474445550319
