CCSDS_OMM_VERS = 2.0
CREATION_DATE  = 
ORIGINATOR     = 

OBJECT_NAME    = SL-16 R/B
OBJECT_ID      = 1992-093B
CENTER_NAME    = EARTH
REF_FRAME      = TEME
TIME_SYSTEM    = UTC
MEAN_ELEMENT_THEORY = SGP/SGP4

EPOCH          = 2025-11-05T20:29:19.236768
MEAN_MOTION    = 14.15418695
ECCENTRICITY   = .00032579
INCLINATION    = 71.0203
RA_OF_ASC_NODE = 264.2238
ARG_OF_PERICENTER = 167.3798
MEAN_ANOMALY   = 192.7408

EPHEMERIS_TYPE = 0
CLASSIFICATION_TYPE = U
NORAD_CAT_ID   = 22285
ELEMENT_SET_NO = 999
REV_AT_EPOCH   = 69563
BSTAR          = .11039647E-3
MEAN_MOTION_DOT = .168E-5
MEAN_MOTION_DDOT = 0

CCSDS_OMM_VERS = 2.0
CREATION_DATE  = 
ORIGINATOR     = 

OBJECT_NAME    = COSMOS 2228
OBJECT_ID      = 1992-094A
CENTER_NAME    = EARTH
REF_FRAME      = TEME
TIME_SYSTEM    = UTC
MEAN_ELEMENT_THEORY = SGP/SGP4

EPOCH          = 2025-11-05T22:01:12.156384
MEAN_MOTION    = 14.96476082
ECCENTRICITY   = .0018042
INCLINATION    = 82.5196
RA_OF_ASC_NODE = 355.7622
ARG_OF_PERICENTER = 3.9483
MEAN_ANOMALY   = 356.1878

EPHEMERIS_TYPE = 0
CLASSIFICATION_TYPE = U
NORAD_CAT_ID   = 22286
ELEMENT_SET_NO = 999
REV_AT_EPOCH   = 75754
BSTAR          = .21499219E-3
MEAN_MOTION_DOT = .2473E-4
MEAN_MOTION_DDOT = 0

CCSDS_OMM_VERS = 2.0
CREATION_DATE  = 
ORIGINATOR     = 

OBJECT_NAME    = SL-16 R/B
OBJECT_ID      = 1993-016B
CENTER_NAME    = EARTH
REF_FRAME      = TEME
TIME_SYSTEM    = UTC
MEAN_ELEMENT_THEORY = SGP/SGP4

EPOCH          = 2025-11-05T21:09:45.768672
MEAN_MOTION    = 14.15278275
ECCENTRICITY   = .00094165
INCLINATION    = 71.0048
RA_OF_ASC_NODE = 115.2128
ARG_OF_PERICENTER = 164.2942
MEAN_ANOMALY   = 195.8474

EPHEMERIS_TYPE = 0
CLASSIFICATION_TYPE = U
NORAD_CAT_ID   = 22566
ELEMENT_SET_NO = 999
REV_AT_EPOCH   = 68465
BSTAR          = -.44321237E-4
MEAN_MOTION_DOT = -.134E-5
MEAN_MOTION_DDOT = 0

CCSDS_OMM_VERS = 2.0
CREATION_DATE  = 
ORIGINATOR     = 

OBJECT_NAME    = COSMOS 2242
OBJECT_ID      = 1993-024A
CENTER_NAME    = EARTH
REF_FRAME      = TEME
TIME_SYSTEM    = UTC
MEAN_ELEMENT_THEORY = SGP/SGP4

EPOCH          = 2025-11-05T15:32:07.303200
MEAN_MOTION    = 14.95873753
ECCENTRICITY   = .00164777
INCLINATION    = 82.5224
RA_OF_ASC_NODE = 25.2870
ARG_OF_PERICENTER = 7.8323
MEAN_ANOMALY   = 352.3153

EPHEMERIS_TYPE = 0
CLASSIFICATION_TYPE = U
NORAD_CAT_ID   = 22626
ELEMENT_SET_NO = 999
REV_AT_EPOCH   = 76184
BSTAR          = .21139027E-3
MEAN_MOTION_DOT = .2394E-4
MEAN_MOTION_DDOT = 0

CCSDS_OMM_VERS = 2.0
CREATION_DATE  = 
ORIGINATOR     = 

OBJECT_NAME    = SL-16 R/B
OBJECT_ID      = 1993-059B
CENTER_NAME    = EARTH
REF_FRAME      = TEME
TIME_SYSTEM    = UTC
MEAN_ELEMENT_THEORY = SGP/SGP4

EPOCH          = 2025-11-05T21:18:59.129568
MEAN_MOTION    = 14.17202045
ECCENTRICITY   = .00157867
INCLINATION    = 70.9891
RA_OF_ASC_NODE = 272.1938
ARG_OF_PERICENTER = 32.0963
MEAN_ANOMALY   = 328.1119

EPHEMERIS_TYPE = 0
CLASSIFICATION_TYPE = U
NORAD_CAT_ID   = 22803
ELEMENT_SET_NO = 999
REV_AT_EPOCH   = 66199
BSTAR          = -.15328454E-4
MEAN_MOTION_DOT = -.79E-6
MEAN_MOTION_DDOT = 0

CCSDS_OMM_VERS = 2.0
CREATION_DATE  = 
ORIGINATOR     = 

OBJECT_NAME    = ARIANE 40 R/B
OBJECT_ID      = 1993-061H
CENTER_NAME    = EARTH
REF_FRAME      = TEME
TIME_SYSTEM    = UTC
MEAN_ELEMENT_THEORY = SGP/SGP4

EPOCH          = 2025-11-05T16:13:19.810272
MEAN_MOTION    = 14.32765055
ECCENTRICITY   = .00096431
INCLINATION    = 98.5121
RA_OF_ASC_NODE = 15.8726
ARG_OF_PERICENTER = 293.3575
MEAN_ANOMALY   = 66.6595

EPHEMERIS_TYPE = 0
CLASSIFICATION_TYPE = U
NORAD_CAT_ID   = 22830
ELEMENT_SET_NO = 999
REV_AT_EPOCH   = 67634
BSTAR          = .12482947E-3
MEAN_MOTION_DOT = .297E-5
MEAN_MOTION_DDOT = 0

CCSDS_OMM_VERS = 2.0
CREATION_DATE  = 
ORIGINATOR     = 

OBJECT_NAME    = COSMOS 2278
OBJECT_ID      = 1994-023A
CENTER_NAME    = EARTH
REF_FRAME      = TEME
TIME_SYSTEM    = UTC
MEAN_ELEMENT_THEORY = SGP/SGP4

EPOCH          = 2025-11-05T18:12:33.693984
MEAN_MOTION    = 14.14331990
ECCENTRICITY   = .00103384
INCLINATION    = 71.0523
RA_OF_ASC_NODE = 74.3764
ARG_OF_PERICENTER = 226.9970
MEAN_ANOMALY   = 133.0287

EPHEMERIS_TYPE = 0
CLASSIFICATION_TYPE = U
NORAD_CAT_ID   = 23087
ELEMENT_SET_NO = 999
REV_AT_EPOCH   = 62728
BSTAR          = .91942756E-4
MEAN_MOTION_DOT = .129E-5
MEAN_MOTION_DDOT = 0

CCSDS_OMM_VERS = 2.0
CREATION_DATE  = 
ORIGINATOR     = 

OBJECT_NAME    = SL-16 R/B
OBJECT_ID      = 1994-023B
CENTER_NAME    = EARTH
REF_FRAME      = TEME
TIME_SYSTEM    = UTC
MEAN_ELEMENT_THEORY = SGP/SGP4

EPOCH          = 2025-11-05T12:12:09.603936
MEAN_MOTION    = 14.14993093
ECCENTRICITY   = .0001804
INCLINATION    = 71.0008
RA_OF_ASC_NODE = 331.6757
ARG_OF_PERICENTER = 176.1507
MEAN_ANOMALY   = 183.9629

EPHEMERIS_TYPE = 0
CLASSIFICATION_TYPE = U
NORAD_CAT_ID   = 23088
ELEMENT_SET_NO = 999
REV_AT_EPOCH   = 62852
BSTAR          = .2423222E-5
MEAN_MOTION_DOT = -.43E-6
MEAN_MOTION_DDOT = 0

CCSDS_OMM_VERS = 2.0
CREATION_DATE  = 
ORIGINATOR     = 

OBJECT_NAME    = SL-16 R/B
OBJECT_ID      = 1994-074B
CENTER_NAME    = EARTH
REF_FRAME      = TEME
TIME_SYSTEM    = UTC
MEAN_ELEMENT_THEORY = SGP/SGP4

EPOCH          = 2025-11-05T13:21:02.075328
MEAN_MOTION    = 14.79222894
ECCENTRICITY   = .00051182
INCLINATION    = 97.7252
RA_OF_ASC_NODE = 340.3300
ARG_OF_PERICENTER = 264.6834
MEAN_ANOMALY   = 248.6753

EPHEMERIS_TYPE = 0
CLASSIFICATION_TYPE = U
NORAD_CAT_ID   = 23343
ELEMENT_SET_NO = 999
REV_AT_EPOCH   = 66889
BSTAR          = .86074294E-4
MEAN_MOTION_DOT = .59E-5
MEAN_MOTION_DDOT = 0

CCSDS_OMM_VERS = 2.0
CREATION_DATE  = 
ORIGINATOR     = 

OBJECT_NAME    = SL-16 R/B
OBJECT_ID      = 1994-077B
CENTER_NAME    = EARTH
REF_FRAME      = TEME
TIME_SYSTEM    = UTC
MEAN_ELEMENT_THEORY = SGP/SGP4

EPOCH          = 2025-11-05T19:42:27.228672
MEAN_MOTION    = 14.15539430
ECCENTRICITY   = .0003595
INCLINATION    = 70.9818
RA_OF_ASC_NODE = 253.0779
ARG_OF_PERICENTER = 314.0238
MEAN_ANOMALY   = 46.0589

EPHEMERIS_TYPE = 0
CLASSIFICATION_TYPE = U
NORAD_CAT_ID   = 23405
ELEMENT_SET_NO = 999
REV_AT_EPOCH   = 59870
BSTAR          = .12709623E-3
MEAN_MOTION_DOT = .201E-5
MEAN_MOTION_DDOT = 0

CCSDS_OMM_VERS = 2.0
CREATION_DATE  = 
ORIGINATOR     = 

OBJECT_NAME    = ARIANE 40+ R/B
OBJECT_ID      = 1995-021B
CENTER_NAME    = EARTH
REF_FRAME      = TEME
TIME_SYSTEM    = UTC
MEAN_ELEMENT_THEORY = SGP/SGP4

EPOCH          = 2025-11-05T15:24:21.100896
MEAN_MOTION    = 14.39649872
ECCENTRICITY   = .00074493
INCLINATION    = 98.4694
RA_OF_ASC_NODE = 17.6715
ARG_OF_PERICENTER = 146.4069
MEAN_ANOMALY   = 10.5840

EPHEMERIS_TYPE = 0
CLASSIFICATION_TYPE = U
NORAD_CAT_ID   = 23561
ELEMENT_SET_NO = 999
REV_AT_EPOCH   = 60139
BSTAR          = .14134662E-3
MEAN_MOTION_DOT = .398E-5
MEAN_MOTION_DDOT = 0

CCSDS_OMM_VERS = 2.0
CREATION_DATE  = 
ORIGINATOR     = 

OBJECT_NAME    = SL-16 R/B
OBJECT_ID      = 1995-058B
CENTER_NAME    = EARTH
REF_FRAME      = TEME
TIME_SYSTEM    = UTC
MEAN_ELEMENT_THEORY = SGP/SGP4

EPOCH          = 2025-11-05T18:01:54.222528
MEAN_MOTION    = 14.15474445
ECCENTRICITY   = .00144514
INCLINATION    = 71.0211
RA_OF_ASC_NODE = 80.4574
ARG_OF_PERICENTER = 303.2571
MEAN_ANOMALY   = 56.7166

EPHEMERIS_TYPE = 0
CLASSIFICATION_TYPE = U
NORAD_CAT_ID   = 23705
ELEMENT_SET_NO = 999
REV_AT_EPOCH   = 55031
BSTAR          = .13078536E-3
MEAN_MOTION_DOT = .208E-5
MEAN_MOTION_DDOT = 0

